[{"OBJECT_NAME":"AEROCUBE 6B","OBJECT_ID":"2014-033AN","EPOCH":"2026-03-09T10:13:48.857088","MEAN_MOTION":14.98232474,"ECCENTRICITY":0.00374529,"INCLINATION":97.7129,"RA_OF_ASC_NODE":236.1645,"ARG_OF_PERICENTER":343.23,"MEAN_ANOMALY":16.7681,"EPHEMERIS_TYPE":0,"CLASSIFICATION_TYPE":"U","NORAD_CAT_ID":40046,"ELEMENT_SET_NO":999,"REV_AT_EPOCH":63181,"BSTAR":0.00066368498,"MEAN_MOTION_DOT":7.941e-5,"MEAN_MOTION_DDOT":0},{"OBJECT_NAME":"STARLINK-5850","OBJECT_ID":"2023-088B","EPOCH":"2026-03-09T19:32:35.950272","MEAN_MOTION":15.02527791,"ECCENTRICITY":0.00013674,"INCLINATION":43.0034,"RA_OF_ASC_NODE":107.2133,"ARG_OF_PERICENTER":266.6473,"MEAN_ANOMALY":93.4213,"EPHEMERIS_TYPE":0,"CLASSIFICATION_TYPE":"U","NORAD_CAT_ID":57049,"ELEMENT_SET_NO":999,"REV_AT_EPOCH":15057,"BSTAR":-0.00010138277,"MEAN_MOTION_DOT":-1.573e-5,"MEAN_MOTION_DDOT":0}]
